[
    {
        "OBJECT_NAME": "COSMOS 2381 [GLONASS]",
        "OBJECT_ID": "2001-053B",
        "EPOCH": "2025-11-23T19:07:40.407744",
        "MEAN_MOTION": 2.13103451,
        "ECCENTRICITY": 0.0046203,
        "INCLINATION": 63.9514,
        "RA_OF_ASC_NODE": 64.7562,
        "ARG_OF_PERICENTER": 228.4622,
        "MEAN_ANOMALY": 138.0754,
        "EPHEMERIS_TYPE": 0,
        "CLASSIFICATION_TYPE": "U",
        "NORAD_CAT_ID": 26988,
        "ELEMENT_SET_NO": 999,
        "REV_AT_EPOCH": 18665,
        "BSTAR": 0,
        "MEAN_MOTION_DOT": -1.8e-07,
        "MEAN_MOTION_DDOT": 0
    },
    {
        "OBJECT_NAME": "COSMOS 2380 [GLONASS]",
        "OBJECT_ID": "2001-053C",
        "EPOCH": "2025-11-23T13:09:01.685088",
        "MEAN_MOTION": 2.1310276,
        "ECCENTRICITY": 0.0005146,
        "INCLINATION": 63.944,
        "RA_OF_ASC_NODE": 64.7172,
        "ARG_OF_PERICENTER": 38.6769,
        "MEAN_ANOMALY": 323.3678,
        "EPHEMERIS_TYPE": 0,
        "CLASSIFICATION_TYPE": "U",
        "NORAD_CAT_ID": 26989,
        "ELEMENT_SET_NO": 999,
        "REV_AT_EPOCH": 18663,
        "BSTAR": 0,
        "MEAN_MOTION_DOT": -1.9e-07,
        "MEAN_MOTION_DDOT": 0
    },
    {
        "OBJECT_NAME": "COSMOS 2394 [GLONASS]",
        "OBJECT_ID": "2002-060A",
        "EPOCH": "2025-11-15T03:24:30.139200",
        "MEAN_MOTION": 2.13102243,
        "ECCENTRICITY": 0.00020466,
        "INCLINATION": 65.5494,
        "RA_OF_ASC_NODE": 322.8951,
        "ARG_OF_PERICENTER": 321.1372,
        "MEAN_ANOMALY": 38.8784,
        "EPHEMERIS_TYPE": 0,
        "CLASSIFICATION_TYPE": "U",
        "NORAD_CAT_ID": 27617,
        "ELEMENT_SET_NO": 999,
        "REV_AT_EPOCH": 17816,
        "BSTAR": 0,
        "MEAN_MOTION_DOT": -3.9e-07,
        "MEAN_MOTION_DDOT": 0
    },
    {
        "OBJECT_NAME": "COSMOS 2396 [GLONASS]",
        "OBJECT_ID": "2002-060B",
        "EPOCH": "2025-11-23T18:17:02.181120",
        "MEAN_MOTION": 2.13100019,
        "ECCENTRICITY": 0.0003558,
        "INCLINATION": 65.5464,
        "RA_OF_ASC_NODE": 322.6,
        "ARG_OF_PERICENTER": 183.9517,
        "MEAN_ANOMALY": 355.101,
        "EPHEMERIS_TYPE": 0,
        "CLASSIFICATION_TYPE": "U",
        "NORAD_CAT_ID": 27618,
        "ELEMENT_SET_NO": 999,
        "REV_AT_EPOCH": 17823,
        "BSTAR": 0,
        "MEAN_MOTION_DOT": -2.9e-07,
        "MEAN_MOTION_DDOT": 0
    },
    {
        "OBJECT_NAME": "COSMOS 2395 [GLONASS]",
        "OBJECT_ID": "2002-060C",
        "EPOCH": "2025-11-22T19:01:05.390400",
        "MEAN_MOTION": 2.13103705,
        "ECCENTRICITY": 0.00129236,
        "INCLINATION": 65.5613,
        "RA_OF_ASC_NODE": 322.7695,
        "ARG_OF_PERICENTER": 249.9294,
        "MEAN_ANOMALY": 292.3296,
        "EPHEMERIS_TYPE": 0,
        "CLASSIFICATION_TYPE": "U",
        "NORAD_CAT_ID": 27619,
        "ELEMENT_SET_NO": 999,
        "REV_AT_EPOCH": 17824,
        "BSTAR": 0,
        "MEAN_MOTION_DOT": -3.5e-07,
        "MEAN_MOTION_DDOT": 0
    },
    {
        "OBJECT_NAME": "COSMOS 2404 [GLONASS-M]",
        "OBJECT_ID": "2003-056A",
        "EPOCH": "2025-11-23T00:22:41.614752",
        "MEAN_MOTION": 2.13088141,
        "ECCENTRICITY": 0.00477533,
        "INCLINATION": 64.1209,
        "RA_OF_ASC_NODE": 69.3391,
        "ARG_OF_PERICENTER": 71.0413,
        "MEAN_ANOMALY": 286.186,
        "EPHEMERIS_TYPE": 0,
        "CLASSIFICATION_TYPE": "U",
        "NORAD_CAT_ID": 28112,
        "ELEMENT_SET_NO": 999,
        "REV_AT_EPOCH": 17082,
        "BSTAR": 0,
        "MEAN_MOTION_DOT": -1.6e-07,
        "MEAN_MOTION_DDOT": 0
    },
    {
        "OBJECT_NAME": "COSMOS 2402 [GLONASS]",
        "OBJECT_ID": "2003-056B",
        "EPOCH": "2025-11-22T19:10:40.271808",
        "MEAN_MOTION": 2.13104957,
        "ECCENTRICITY": 0.00507415,
        "INCLINATION": 64.1365,
        "RA_OF_ASC_NODE": 69.4556,
        "ARG_OF_PERICENTER": 73.8238,
        "MEAN_ANOMALY": 294.4912,
        "EPHEMERIS_TYPE": 0,
        "CLASSIFICATION_TYPE": "U",
        "NORAD_CAT_ID": 28113,
        "ELEMENT_SET_NO": 999,
        "REV_AT_EPOCH": 17085,
        "BSTAR": 0,
        "MEAN_MOTION_DOT": -1.8e-07,
        "MEAN_MOTION_DDOT": 0
    },
    {
        "OBJECT_NAME": "COSMOS 2403 [GLONASS]",
        "OBJECT_ID": "2003-056C",
        "EPOCH": "2025-11-19T03:42:22.922208",
        "MEAN_MOTION": 2.13104867,
        "ECCENTRICITY": 0.00578382,
        "INCLINATION": 64.1381,
        "RA_OF_ASC_NODE": 69.6359,
        "ARG_OF_PERICENTER": 62.1366,
        "MEAN_ANOMALY": 298.3216,
        "EPHEMERIS_TYPE": 0,
        "CLASSIFICATION_TYPE": "U",
        "NORAD_CAT_ID": 28114,
        "ELEMENT_SET_NO": 999,
        "REV_AT_EPOCH": 17076,
        "BSTAR": 0,
        "MEAN_MOTION_DOT": -4.8e-07,
        "MEAN_MOTION_DDOT": 0
    },
    {
        "OBJECT_NAME": "COSMOS 2411 [GLONASS]",
        "OBJECT_ID": "2004-053A",
        "EPOCH": "2025-11-22T18:05:07.437984",
        "MEAN_MOTION": 2.13103346,
        "ECCENTRICITY": 0.00070917,
        "INCLINATION": 64.0767,
        "RA_OF_ASC_NODE": 67.5274,
        "ARG_OF_PERICENTER": 218.0422,
        "MEAN_ANOMALY": 137.3612,
        "EPHEMERIS_TYPE": 0,
        "CLASSIFICATION_TYPE": "U",
        "NORAD_CAT_ID": 28508,
        "ELEMENT_SET_NO": 999,
        "REV_AT_EPOCH": 16272,
        "BSTAR": 0,
        "MEAN_MOTION_DOT": -2.1e-07,
        "MEAN_MOTION_DDOT": 0
    },
    {
        "OBJECT_NAME": "COSMOS 2413 [GLONASS-M]",
        "OBJECT_ID": "2004-053B",
        "EPOCH": "2025-11-22T19:17:04.123680",
        "MEAN_MOTION": 2.13096797,
        "ECCENTRICITY": 0.00042867,
        "INCLINATION": 64.073,
        "RA_OF_ASC_NODE": 67.4712,
        "ARG_OF_PERICENTER": 194.8443,
        "MEAN_ANOMALY": 181.4869,
        "EPHEMERIS_TYPE": 0,
        "CLASSIFICATION_TYPE": "U",
        "NORAD_CAT_ID": 28509,
        "ELEMENT_SET_NO": 999,
        "REV_AT_EPOCH": 16272,
        "BSTAR": 0,
        "MEAN_MOTION_DOT": -2.1e-07,
        "MEAN_MOTION_DDOT": 0
    },
    {
        "OBJECT_NAME": "COSMOS 2412 [GLONASS]",
        "OBJECT_ID": "2004-053C",
        "EPOCH": "2025-11-21T19:22:02.677152",
        "MEAN_MOTION": 2.13103418,
        "ECCENTRICITY": 0.00082096,
        "INCLINATION": 64.0812,
        "RA_OF_ASC_NODE": 67.6347,
        "ARG_OF_PERICENTER": 249.6937,
        "MEAN_ANOMALY": 127.1789,
        "EPHEMERIS_TYPE": 0,
        "CLASSIFICATION_TYPE": "U",
        "NORAD_CAT_ID": 28510,
        "ELEMENT_SET_NO": 999,
        "REV_AT_EPOCH": 16270,
        "BSTAR": 0,
        "MEAN_MOTION_DOT": -2.9e-07,
        "MEAN_MOTION_DDOT": 0
    },
    {
        "OBJECT_NAME": "COSMOS 2419 [GLONASS-M]",
        "OBJECT_ID": "2005-050A",
        "EPOCH": "2025-11-07T11:37:02.375328",
        "MEAN_MOTION": 2.13108171,
        "ECCENTRICITY": 0.0014706,
        "INCLINATION": 65.6937,
        "RA_OF_ASC_NODE": 323.5637,
        "ARG_OF_PERICENTER": 328.4604,
        "MEAN_ANOMALY": 227.5879,
        "EPHEMERIS_TYPE": 0,
        "CLASSIFICATION_TYPE": "U",
        "NORAD_CAT_ID": 28915,
        "ELEMENT_SET_NO": 999,
        "REV_AT_EPOCH": 15464,
        "BSTAR": 0,
        "MEAN_MOTION_DOT": -3.4e-07,
        "MEAN_MOTION_DDOT": 0
    },
    {
        "OBJECT_NAME": "COSMOS 2418 [GLONASS-M]",
        "OBJECT_ID": "2005-050B",
        "EPOCH": "2025-11-21T07:13:38.713728",
        "MEAN_MOTION": 2.13106634,
        "ECCENTRICITY": 0.00140575,
        "INCLINATION": 65.7093,
        "RA_OF_ASC_NODE": 323.2708,
        "ARG_OF_PERICENTER": 279.6231,
        "MEAN_ANOMALY": 86.9228,
        "EPHEMERIS_TYPE": 0,
        "CLASSIFICATION_TYPE": "U",
        "NORAD_CAT_ID": 28916,
        "ELEMENT_SET_NO": 999,
        "REV_AT_EPOCH": 15483,
        "BSTAR": 0,
        "MEAN_MOTION_DOT": -4.3e-07,
        "MEAN_MOTION_DDOT": 0
    },
    {
        "OBJECT_NAME": "COSMOS 2417 [GLONASS]",
        "OBJECT_ID": "2005-050C",
        "EPOCH": "2025-11-02T15:43:21.700128",
        "MEAN_MOTION": 2.13103856,
        "ECCENTRICITY": 0.0013483,
        "INCLINATION": 65.6989,
        "RA_OF_ASC_NODE": 323.7582,
        "ARG_OF_PERICENTER": 103.2531,
        "MEAN_ANOMALY": 73.9427,
        "EPHEMERIS_TYPE": 0,
        "CLASSIFICATION_TYPE": "U",
        "NORAD_CAT_ID": 28917,
        "ELEMENT_SET_NO": 999,
        "REV_AT_EPOCH": 15440,
        "BSTAR": 0,
        "MEAN_MOTION_DOT": -8e-08,
        "MEAN_MOTION_DDOT": 0
    },
    {
        "OBJECT_NAME": "COSMOS 2425 [GLONASS-M]",
        "OBJECT_ID": "2006-062A",
        "EPOCH": "2025-11-22T08:24:38.498976",
        "MEAN_MOTION": 2.13116853,
        "ECCENTRICITY": 0.002238,
        "INCLINATION": 64.689,
        "RA_OF_ASC_NODE": 201.1652,
        "ARG_OF_PERICENTER": 357.5841,
        "MEAN_ANOMALY": 185.8061,
        "EPHEMERIS_TYPE": 0,
        "CLASSIFICATION_TYPE": "U",
        "NORAD_CAT_ID": 29670,
        "ELEMENT_SET_NO": 999,
        "REV_AT_EPOCH": 14717,
        "BSTAR": 0,
        "MEAN_MOTION_DOT": 6.4e-07,
        "MEAN_MOTION_DDOT": 0
    },
    {
        "OBJECT_NAME": "COSMOS 2426 [GLONASS-M]",
        "OBJECT_ID": "2006-062B",
        "EPOCH": "2025-11-22T06:05:27.290112",
        "MEAN_MOTION": 2.1296366,
        "ECCENTRICITY": 0.00216797,
        "INCLINATION": 64.6971,
        "RA_OF_ASC_NODE": 201.4128,
        "ARG_OF_PERICENTER": 180.7181,
        "MEAN_ANOMALY": 340.9011,
        "EPHEMERIS_TYPE": 0,
        "CLASSIFICATION_TYPE": "U",
        "NORAD_CAT_ID": 29671,
        "ELEMENT_SET_NO": 999,
        "REV_AT_EPOCH": 14714,
        "BSTAR": 0,
        "MEAN_MOTION_DOT": 6.4e-07,
        "MEAN_MOTION_DDOT": 0
    }
]